NORAD_CAT_ID,OBJECT_NAME,OBJECT_TYPE,EPOCH,MEAN_MOTION,ECCENTRICITY,INCLINATION,RA_OF_ASC_NODE,ARG_OF_PERICENTER,MEAN_ANOMALY,BSTAR,MEAN_MOTION_DOT,MEAN_MOTION_DDOT,TLE_LINE0,TLE_LINE1,TLE_LINE2,SEMIMAJOR_AXIS,PERIOD,APOGEE,PERIGEE,DECAYED
53413.0,STARLINK-4500,PAYLOAD,2022-09-06 22:00:00,15.73137555,7.77e-05,53.2174,110.8609,65.3803,79.467,0.00029742,0.00041214,0.0,0 STARLINK-4500,1 53413U 22097AB  22249.91667824  .00041214  00000-0  29742-3 0  9997,2 53413  53.2174 110.8609 0000777  65.3803  79.4670 15.73137555  1300,6728.073,91.537,350.461,349.415,0.0
53413.0,STARLINK-4500,PAYLOAD,2022-09-07 14:00:01,15.7320494,6.7e-05,53.2174,107.5604,79.3168,243.3217,0.00060109,0.0008461,0.0,0 STARLINK-4500,1 53413U 22097AB  22250.58334491  .00084610  00000-0  60109-3 0  9992,2 53413  53.2174 107.5604 0000670  79.3168 243.3217 15.73204940  4898,6727.880999999999,91.533,350.19699999999995,349.295,0.0
53413.0,STARLINK-4500,PAYLOAD,2022-09-07 22:00:00,15.73280936,8.52e-05,53.2171,105.9113,62.0203,349.5856,-0.00047262,-0.00066651,0.0,0 STARLINK-4500,1 53413U 22097AB  22250.91667824 -.00066651  00000-0 -47262-3 0  9990,2 53413  53.2171 105.9113 0000852  62.0203 349.5856 15.73280936  1303,6727.6640000000025,91.528,350.103,348.956,0.0
53413.0,STARLINK-4500,PAYLOAD,2022-09-08 06:00:00,15.73267641,9.67e-05,53.2167,104.2626,69.8848,70.679,-0.00057488,-0.00080759,0.0,0 STARLINK-4500,1 53413U 22097AB  22251.25001157 -.00080759  00000-0 -57488-3 0  9995,2 53413  53.2167 104.2626 0000967  69.8848  70.6790 15.73267641  5004,6727.7019999999975,91.529,350.218,348.917,0.0
53413.0,STARLINK-4500,PAYLOAD,2022-09-08 14:00:01,15.73171499,0.0001105999999999,53.2169,102.6119,83.6706,145.8473,0.00044579,0.00062332,0.0,0 STARLINK-4500,1 53413U 22097AB  22251.58334491  .00062332  00000-0  44579-3 0  9993,2 53413  53.2169 102.6119 0001106  83.6706 145.8473 15.73171499  1305,6727.976,91.535,350.586,349.097,0.0
53413.0,STARLINK-4500,PAYLOAD,2022-09-08 22:00:00,15.73248319,0.0001231999999999,53.2169,100.9644,69.8345,248.6295,-0.00036134,-0.00051128,0.0,0 STARLINK-4500,1 53413U 22097AB  22251.91667824 -.00051128  00000-0 -36134-3 0  9990,2 53413  53.2169 100.9644 0001232  69.8345 248.6295 15.73248319  5106,6727.757,91.53,350.451,348.7940000000001,0.0
53413.0,STARLINK-4500,PAYLOAD,2022-09-09 14:00:01,15.731744,0.0001065999999999,53.2167,97.6634,79.3227,57.0315,0.00042347,0.00059165,0.0,0 STARLINK-4500,1 53413U 22097AB  22252.58334491  .00059165  00000-0  42347-3 0  9995,2 53413  53.2167  97.6634 0001066  79.3227  57.0315 15.73174400  1307,6727.968000000003,91.535,350.55,349.116,0.0
53413.0,STARLINK-4500,PAYLOAD,2022-09-09 20:00:01,15.73236778,0.0001208,53.2162,96.428,67.2076,45.82899999999999,-0.00058769,-0.00082423,0.0,0 STARLINK-4500,1 53413U 22097AB  22252.83334491 -.00082423  00000-0 -58769-3 0  9993,2 53413  53.2162  96.4280 0001208  67.2076  45.8290 15.73236778  5254,6727.79,91.531,350.468,348.843,0.0
53413.0,STARLINK-4500,PAYLOAD,2022-09-09 22:00:00,15.7322133,0.0001281999999999,53.2164,96.014,64.9384,160.3398,-0.00048765,-0.00068565,0.0,0 STARLINK-4500,1 53413U 22097AB  22252.91667824 -.00068565  00000-0 -48765-3 0  9997,2 53413  53.2164  96.0140 0001282  64.9384 160.3398 15.73221330  1307,6727.834,91.532,350.56199999999984,348.837,0.0
53413.0,STARLINK-4500,PAYLOAD,2022-09-10 06:00:02,15.73203655,0.0001163,53.216,94.364,71.2787,243.0073,-8.965700000000001e-05,-0.00013184,0.0,0 STARLINK-4500,1 53413U 22097AB  22253.25002315 -.00013184  00000-0 -89657-4 0  9996,2 53413  53.2160  94.3640 0001163  71.2787 243.0073 15.73203655  5319,6727.885,91.533,350.532,348.967,0.0
53413.0,STARLINK-4500,PAYLOAD,2022-09-10 14:00:01,15.73199902,0.0001042999999999,53.2161,92.7145,78.476,324.7039,6.7333e-05,8.840000000000001e-05,0.0,0 STARLINK-4500,1 53413U 22097AB  22253.58334491  .00008840  00000-0  67333-4 0  9993,2 53413  53.2161  92.7145 0001043  78.4760 324.7039 15.73199902  5362,6727.895,91.533,350.462,349.059,0.0
53413.0,STARLINK-4500,PAYLOAD,2022-09-10 22:00:00,15.73187062,0.0001154,53.2162,91.067,61.1855,70.918,-9.0888e-05,-0.00013347,0.0,0 STARLINK-4500,1 53413U 22097AB  22253.91667824 -.00013347  00000-0 -90888-4 0  9990,2 53413  53.2162  91.0670 0001154  61.1855  70.9180 15.73187062  1306,6727.932,91.534,350.5730000000001,349.021,0.0
53413.0,STARLINK-4500,PAYLOAD,2022-09-11 06:00:00,15.73191973,0.0001142,53.2162,89.416,66.1569,154.8538,0.00015011,0.00020491,0.0,0 STARLINK-4500,1 53413U 22097AB  22254.25001157  .00020491  00000-0  15011-3 0  9999,2 53413  53.2162  89.4160 0001142  66.1569 154.8538 15.73191973  5472,6727.918000000002,91.534,350.551,349.015,0.0
53413.0,STARLINK-4500,PAYLOAD,2022-09-11 14:00:01,15.73236067,0.0001074,53.2162,87.766,71.2239,238.7055,0.00016986,0.00023321,0.0,0 STARLINK-4500,1 53413U 22097AB  22254.58334491  .00023321  00000-0  16986-3 0  9992,2 53413  53.2162  87.7660 0001074  71.2239 238.7055 15.73236067  1301,6727.792,91.531,350.38,348.935,0.0
53413.0,STARLINK-4500,PAYLOAD,2022-09-11 22:00:00,15.73239437,0.000117,53.216,86.1159,57.0918,341.8258,-0.00044605,-0.00062858,0.0,0 STARLINK-4500,1 53413U 22097AB  22254.91667824 -.00062858  00000-0 -44605-3 0  9997,2 53413  53.2160  86.1159 0001170  57.0918 341.8258 15.73239437  1303,6727.783,91.531,350.435,348.861,0.0
53413.0,STARLINK-4500,PAYLOAD,2022-09-12 12:00:00,15.73166094,0.0001231999999999,53.2157,83.229,73.2137,31.3805,0.00046108,0.00064493,0.0,0 STARLINK-4500,1 53413U 22097AB  22255.50001157  .00064493  00000-0  46108-3 0  9999,2 53413  53.2157  83.2290 0001232  73.2137  31.3805 15.73166094  5676,6727.9919999999975,91.535,350.686,349.028,0.0
53413.0,STARLINK-4500,PAYLOAD,2022-09-12 14:00:01,15.73175685,0.0001262999999999,53.2159,82.81700000000002,71.8786,144.9402,0.00046028,0.00064406,0.0,0 STARLINK-4500,1 53413U 22097AB  22255.58334491  .00064406  00000-0  46028-3 0  9992,2 53413  53.2159  82.8170 0001263  71.8786 144.9402 15.73175685  1304,6727.964,91.535,350.67900000000014,348.98,0.0
53413.0,STARLINK-4500,PAYLOAD,2022-09-12 22:00:00,15.73203476,0.0001426999999999,53.2161,81.167,58.07,247.6778,0.00060417,0.00085047,0.0,0 STARLINK-4500,1 53413U 22097AB  22255.91667824  .00085047  00000-0  60417-3 0  9990,2 53413  53.2161  81.1670 0001427  58.0700 247.6778 15.73203476  1306,6727.885,91.533,350.71,348.79,0.0
53413.0,STARLINK-4500,PAYLOAD,2022-09-13 06:00:00,15.7325974,0.0001163,53.2162,79.5182,60.2141,334.473,-0.00071096,-0.00099478,0.0,0 STARLINK-4500,1 53413U 22097AB  22256.25001157 -.00099478  00000-0 -71096-3 0  9999,2 53413  53.2162  79.5182 0001163  60.2141 334.4730 15.73259740  5781,6727.725,91.53,350.372,348.807,0.0
53413.0,STARLINK-4500,PAYLOAD,2022-09-13 14:00:01,15.73187383,0.0001242999999999,53.2162,77.8685,63.9092,59.7356,0.00027706,0.0003842,0.0,0 STARLINK-4500,1 53413U 22097AB  22256.58334491  .00038420  00000-0  27706-3 0  9992,2 53413  53.2162  77.8685 0001243  63.9092  59.7356 15.73187383  1302,6727.931,91.534,350.63199999999995,348.96,0.0
53413.0,STARLINK-4500,PAYLOAD,2022-09-13 16:00:00,15.73216705,0.000127,53.2164,77.4565,59.459,176.4096,-0.00015059,-0.00021715,0.0,0 STARLINK-4500,1 53413U 22097AB  22256.66667824 -.00021715  00000-0 -15059-3 0  9999,2 53413  53.2164  77.4565 0001270  59.4590 176.4096 15.73216705  5853,6727.848000000001,91.532,350.56699999999995,348.858,0.0
53413.0,STARLINK-4500,PAYLOAD,2022-09-13 22:00:00,15.73230616,0.0001261,53.2165,76.2157,54.6427,157.9327,-0.00076961,-0.00107401,0.0,0 STARLINK-4500,1 53413U 22097AB  22256.91667824 -.00107401  00000-0 -76961-3 0  9993,2 53413  53.2165  76.2157 0001261  54.6427 157.9327 15.73230616  1308,6727.808000000001,91.531,350.521,348.825,0.0
53413.0,STARLINK-4500,PAYLOAD,2022-09-14 14:00:01,15.73252562,0.0001044999999999,53.2167,72.9059,60.2139,330.1331,-0.0055366,-0.0071628,0.0,0 STARLINK-4500,1 53413U 22097AB  22257.58334491 -.00716280  00000-0 -55366-2 0  9994,2 53413  53.2167  72.9059 0001045  60.2139 330.1331 15.73252562  1301,6727.745,91.53,350.31300000000016,348.907,0.0
53413.0,STARLINK-4500,PAYLOAD,2022-09-14 20:00:01,15.72948873,0.0001198,53.2173,71.6661,46.2481,320.6663,-0.0084848,-0.01059454,0.0,0 STARLINK-4500,1 53413U 22097AB  22257.83334491 -.01059454  00000-0 -84848-2 0  9993,2 53413  53.2173  71.6661 0001198  46.2481 320.6663 15.72948873  6039,6728.611,91.548,351.282,349.67,0.0
53413.0,STARLINK-4500,PAYLOAD,2022-09-14 22:00:00,15.72687603,0.0001392,53.217,71.2564,56.1163,62.9561,-0.0077183999999999,-0.00962703,0.0,0 STARLINK-4500,1 53413U 22097AB  22257.91667824 -.00962703  00000-0 -77184-2 0  9995,2 53413  53.2170  71.2564 0001392  56.1163  62.9561 15.72687603  1306,6729.356,91.563,352.158,350.285,0.0
53413.0,STARLINK-4500,PAYLOAD,2022-09-15 14:00:01,15.71234343,0.0001231999999999,53.2175,67.9575,66.4492,227.5405,-0.0090722,-0.01053357,0.0,0 STARLINK-4500,1 53413U 22097AB  22258.58334491 -.01053357  00000-0 -90722-2 0  9990,2 53413  53.2175  67.9575 0001232  66.4492 227.5405 15.71234343  1301,6733.505,91.648,356.2,354.541,0.0
53413.0,STARLINK-4500,PAYLOAD,2022-09-15 22:00:00,15.70475012,0.0001159,53.2173,66.31,53.6811,326.4119,-0.0093353,-0.01049981,0.0,0 STARLINK-4500,1 53413U 22097AB  22258.91667824 -.01049981  00000-0 -93353-2 0  9997,2 53413  53.2173  66.3100 0001159  53.6811 326.4119 15.70475012  1307,6735.675,91.692,358.321,356.76,0.0
53413.0,STARLINK-4500,PAYLOAD,2022-09-16 02:00:01,15.7009835,0.0001299,53.2169,65.4884,49.3887,193.413,-0.0095395,-0.0105551,0.0,0 STARLINK-4500,1 53413U 22097AB  22259.08334491 -.01055510  00000-0 -95395-2 0  9990,2 53413  53.2169  65.4884 0001299  49.3887 193.4130 15.70098350  6239,6736.753000000002,91.714,359.49300000000005,357.74300000000005,0.0
53413.0,STARLINK-4500,PAYLOAD,2022-09-16 14:00:01,15.68990267,0.0001378,53.2172,63.0246,57.5508,131.9956,-0.010404,-0.01094501,0.0,0 STARLINK-4500,1 53413U 22097AB  22259.58334491 -.01094501  00000-0 -10404-1 0  9995,2 53413  53.2172  63.0246 0001378  57.5508 131.9956 15.68990267  1309,6739.924,91.779,362.718,360.86,0.0
